{"epoch":1784710044,"count":18256,"objects":[{"id":"45675","name":"STARLINK-1458","type":"PAYLOAD","l1":"1 45675U 20035U   26202.66668981  .00026168  00000-0  22642-3 0  9991","l2":"2 45675  53.0416 129.1259 0001760 100.9673 177.8079 15.69024567  5905"},{"id":"45676","name":"STARLINK-1460","type":"PAYLOAD","l1":"1 45676U 20035V   26202.20708989  .00030176  00000-0  78083-3 0  9999","l2":"2 45676  53.1554 161.6344 0004985  43.1168 317.0227 15.38839576339201"},{"id":"45677","name":"STARLINK-1392","type":"PAYLOAD","l1":"1 45677U 20035W   26202.19313129  .00036067  00000-0  82761-3 0  9999","l2":"2 45677  53.1508 159.2530 0005334  41.0247 319.1159 15.42392190339270"},{"id":"45679","name":"STARLINK-1394","type":"PAYLOAD","l1":"1 45679U 20035Y   26202.01422929  .00047403  00000-0  37241-3 0  9990","l2":"2 45679  53.0376 105.7044 0001156 133.6472 226.4641 15.71056802339989"},{"id":"45685","name":"STARLINK-1402","type":"PAYLOAD","l1":"1 45685U 20035AE  26202.43011217  .00041983  00000-0  37304-3 0  9994","l2":"2 45685  53.0399  96.2451 0000859 148.9785 211.1281 15.68126672340164"},{"id":"45686","name":"STARLINK-1404","type":"PAYLOAD","l1":"1 45686U 20035AF  26202.20806298  .00044526  00000-0  82634-3 0  9993","l2":"2 45686  53.1538 138.9319 0004612  32.5454 327.5838 15.48519648339569"},{"id":"45689","name":"STARLINK-1413","type":"PAYLOAD","l1":"1 45689U 20035AJ  26202.57530567  .00036626  00000-0  95365-3 0  9996","l2":"2 45689  53.1552 144.5958 0004826  46.7588 313.3819 15.38552401339433"},{"id":"45693","name":"STARLINK-1417","type":"PAYLOAD","l1":"1 45693U 20035AN  26202.32068423  .00014874  00000-0  72289-3 0  9992","l2":"2 45693  53.0500 165.6595 0003047 342.1401  17.9485 15.18650474339165"},{"id":"45695","name":"STARLINK-1420","type":"PAYLOAD","l1":"1 45695U 20035AQ  26201.92582641  .00060845  00000-0  39282-3 0  9997","l2":"2 45695  53.0419  88.1642 0001154 196.1917 163.9066 15.75550797340220"},{"id":"45696","name":"STARLINK-1422","type":"PAYLOAD","l1":"1 45696U 20035AR  26202.15509816  .00032410  00000-0  79645-3 0  9991","l2":"2 45696  53.1534 146.1540 0001766  85.6428 274.4779 15.40387566339456"},{"id":"45697","name":"STARLINK-1351","type":"PAYLOAD","l1":"1 45697U 20035AS  26201.98873780  .00043999  00000-0  35464-3 0  9991","l2":"2 45697  53.0410  89.4867 0000861  30.1509 329.9557 15.70475011340212"},{"id":"45700","name":"STARLINK-1400","type":"PAYLOAD","l1":"1 45700U 20035AV  26202.24172614  .00068438  00000-0  44228-3 0  9997","l2":"2 45700  53.0417  89.8828 0001409 164.9625 195.1436 15.75480445340221"},{"id":"45701","name":"STARLINK-1403","type":"PAYLOAD","l1":"1 45701U 20035AW  26202.16904191  .00031483  00000-0  85513-3 0  9994","l2":"2 45701  53.1522 134.3481 0004553  50.0905 310.0498 15.37322832339610"},{"id":"45703","name":"STARLINK-1407","type":"PAYLOAD","l1":"1 45703U 20035AY  26201.73519306  .00081474  00000-0  39888-3 0  9997","l2":"2 45703  53.0266  16.8267 0003866 203.2030 156.8818 15.81586846341205"},{"id":"45710","name":"STARLINK-1423","type":"PAYLOAD","l1":"1 45710U 20035BF  26202.10341919  .00058568  00000-0  40612-3 0  9995","l2":"2 45710  53.0408  86.9407 0003012 204.9732 155.1141 15.73911277340240"},{"id":"45711","name":"STARLINK-1433","type":"PAYLOAD","l1":"1 45711U 20035BG  26202.62133022  .00096858  00000-0  50853-3 0  9999","l2":"2 45711  53.0406  81.7802 0001342 213.0278 147.0659 15.80004439340369"},{"id":"45712","name":"STARLINK-1434","type":"PAYLOAD","l1":"1 45712U 20035BH  26202.45657109  .00037799  00000-0  10082-2 0  9996","l2":"2 45712  53.0473 114.9267 0002880 106.6795 253.4524 15.37799709339901"},{"id":"45731","name":"STARLINK-1465","type":"PAYLOAD","l1":"1 45731U 20038B   26202.50834827  .00065787  00000-0  46987-3 0  9992","l2":"2 45731  53.0426 289.4176 0003162 341.3218  18.7684 15.73172686337297"},{"id":"45735","name":"STARLINK-1471","type":"PAYLOAD","l1":"1 45735U 20038F   26202.42434650  .00041701  00000-0  58348-3 0  9991","l2":"2 45735  53.0428 217.8792 0002948   8.3362 351.7697 15.56418586338303"},{"id":"45741","name":"STARLINK-1480","type":"PAYLOAD","l1":"1 45741U 20038M   26202.26432914  .00045279  00000-0  37871-3 0  9993","l2":"2 45741  53.0457 285.3754 0001335 129.7167 230.3968 15.69569225337347"},{"id":"45744","name":"STARLINK-1500","type":"PAYLOAD","l1":"1 45744U 20038Q   26202.59453058  .00022789  00000-0  54823-3 0  9991","l2":"2 45744  53.0340 281.4053 0002943 352.8633   7.2329 15.41224235337423"},{"id":"45746","name":"STARLINK-1504","type":"PAYLOAD","l1":"1 45746U 20038S   26202.40452446  .00029791  00000-0  34091-3 0  9998","l2":"2 45746  53.0177 212.7506 0002491  11.1490 348.9577 15.61909921338354"},{"id":"45747","name":"STARLINK-1506","type":"PAYLOAD","l1":"1 45747U 20038T   26202.55941396  .00016336  00000-0  57618-3 0  9993","l2":"2 45747  53.0748 301.5128 0002681 336.3897  23.6978 15.29411557337156"},{"id":"45751","name":"STARLINK-1464","type":"PAYLOAD","l1":"1 45751U 20038X   26202.56478765  .00048937  00000-0  68065-3 0  9994","l2":"2 45751  53.0440 280.8484 0001489 134.7809 225.3323 15.56511549337430"},{"id":"45754","name":"STARLINK-1477","type":"PAYLOAD","l1":"1 45754U 20038AA  26202.04435110  .00016401  00000-0  74216-3 0  9993","l2":"2 45754  53.0490 323.6540 0000857 358.1717   1.9275 15.21049081336785"},{"id":"45755","name":"STARLINK-1478","type":"PAYLOAD","l1":"1 45755U 20038AB  26202.48212906  .00074764  00000-0  47242-3 0  9993","l2":"2 45755  53.0432 260.4668 0004390  19.0634 341.0549 15.75950341337690"},{"id":"45759","name":"STARLINK-1493","type":"PAYLOAD","l1":"1 45759U 20038AF  26202.59009451  .00056291  00000-0  47137-3 0  9996","l2":"2 45759  53.0441 271.3442 0002117 113.4935 246.6304 15.69446024337558"},{"id":"45764","name":"STARLINK-1502","type":"PAYLOAD","l1":"1 45764U 20038AL  26202.36056482  .00051085  00000-0  44335-3 0  9996","l2":"2 45764  53.0423 276.6997 0003604  19.1962 340.9189 15.68611716337472"},{"id":"45772","name":"STARLINK-1470","type":"PAYLOAD","l1":"1 45772U 20038AU  26202.47627874  .00025668  00000-0  67378-3 0  9996","l2":"2 45772  53.0390 268.0902 0001508  28.5834 331.5251 15.38491459337606"},{"id":"45773","name":"STARLINK-1482","type":"PAYLOAD","l1":"1 45773U 20038AV  26202.60409363  .00032690  00000-0  77607-3 0  9992","l2":"2 45773  53.1553 283.6081 0001461  50.2828 309.8306 15.41429147337421"}]}