OBJECT_NAME,OBJECT_ID,EPOCH,MEAN_MOTION,ECCENTRICITY,INCLINATION,RA_OF_ASC_NODE,ARG_OF_PERICENTER,MEAN_ANOMALY,EPHEMERIS_TYPE,CLASSIFICATION_TYPE,NORAD_CAT_ID,ELEMENT_SET_NO,REV_AT_EPOCH,BSTAR,MEAN_MOTION_DOT,MEAN_MOTION_DDOT
STARLINK-1458,2020-035U,2026-07-21T16:00:01.999584,15.69024567,.00017601,53.0416,129.1259,100.9673,177.8079,0,U,45675,999,590,.2264221E-3,.26168E-3,0
STARLINK-1460,2020-035V,2026-07-21T04:58:12.566496,15.38839576,.00049855,53.1554,161.6344,43.1168,317.0227,0,U,45676,999,33920,.78082558E-3,.30176E-3,0
STARLINK-1392,2020-035W,2026-07-21T04:38:06.543456,15.42392190,.0005334,53.1508,159.2530,41.0247,319.1159,0,U,45677,999,33927,.82760692E-3,.36067E-3,0
STARLINK-1394,2020-035Y,2026-07-21T00:20:29.410656,15.71056802,.00011556,53.0376,105.7044,133.6472,226.4641,0,U,45679,999,33998,.372412E-3,.47403E-3,0
STARLINK-1402,2020-035AE,2026-07-21T10:19:21.691488,15.68126672,.00008589,53.0399,96.2451,148.9785,211.1281,0,U,45685,999,34016,.37303819E-3,.41983E-3,0
STARLINK-1404,2020-035AF,2026-07-21T04:59:36.641472,15.48519648,.00046122,53.1538,138.9319,32.5454,327.5838,0,U,45686,999,33956,.8263354E-3,.44526E-3,0
STARLINK-1413,2020-035AJ,2026-07-21T13:48:26.409888,15.38552401,.00048262,53.1552,144.5958,46.7588,313.3819,0,U,45689,999,33943,.95364611E-3,.36626E-3,0
STARLINK-1417,2020-035AN,2026-07-21T07:41:47.117472,15.18650474,.00030466,53.0500,165.6595,342.1401,17.9485,0,U,45693,999,33916,.7228874E-3,.14874E-3,0
STARLINK-1420,2020-035AQ,2026-07-20T22:13:11.401824,15.75550797,.0001154,53.0419,88.1642,196.1917,163.9066,0,U,45695,999,34022,.39282026E-3,.60845E-3,0
STARLINK-1422,2020-035AR,2026-07-21T03:43:20.481024,15.40387566,.00017657,53.1534,146.1540,85.6428,274.4779,0,U,45696,999,33945,.79645404E-3,.3241E-3,0
STARLINK-1351,2020-035AS,2026-07-20T23:43:46.945920,15.70475011,.00008607,53.0410,89.4867,30.1509,329.9557,0,U,45697,999,34021,.35464221E-3,.43999E-3,0
STARLINK-1400,2020-035AV,2026-07-21T05:48:05.138496,15.75480445,.00014086,53.0417,89.8828,164.9625,195.1436,0,U,45700,999,34022,.44228045E-3,.68438E-3,0
STARLINK-1403,2020-035AW,2026-07-21T04:03:25.221024,15.37322832,.00045533,53.1522,134.3481,50.0905,310.0498,0,U,45701,999,33961,.85512789E-3,.31483E-3,0
STARLINK-1407,2020-035AY,2026-07-20T17:38:40.680384,15.81586846,.00038659,53.0266,16.8267,203.2030,156.8818,0,U,45703,999,34120,.39888256E-3,.81474E-3,0
STARLINK-1423,2020-035BF,2026-07-21T02:28:55.418016,15.73911277,.00030125,53.0408,86.9407,204.9732,155.1141,0,U,45710,999,34024,.40612056E-3,.58568E-3,0
STARLINK-1433,2020-035BG,2026-07-21T14:54:42.931008,15.80004439,.00013418,53.0406,81.7802,213.0278,147.0659,0,U,45711,999,34036,.50852582E-3,.96858E-3,0
STARLINK-1434,2020-035BH,2026-07-21T10:57:27.742176,15.37799709,.00028805,53.0473,114.9267,106.6795,253.4524,0,U,45712,999,33990,.10081582E-2,.37799E-3,0
STARLINK-1465,2020-038B,2026-07-21T12:12:01.290528,15.73172686,.00031618,53.0426,289.4176,341.3218,18.7684,0,U,45731,999,33729,.46987076E-3,.65787E-3,0
STARLINK-1471,2020-038F,2026-07-21T10:11:03.537600,15.56418586,.00029483,53.0428,217.8792,8.3362,351.7697,0,U,45735,999,33830,.58348432E-3,.41701E-3,0
STARLINK-1480,2020-038M,2026-07-21T06:20:38.037696,15.69569225,.00013347,53.0457,285.3754,129.7167,230.3968,0,U,45741,999,33734,.37870591E-3,.45279E-3,0
STARLINK-1500,2020-038Q,2026-07-21T14:16:07.442112,15.41224235,.00029428,53.0340,281.4053,352.8633,7.2329,0,U,45744,999,33742,.54823381E-3,.22789E-3,0
STARLINK-1504,2020-038S,2026-07-21T09:42:30.913344,15.61909921,.00024908,53.0177,212.7506,11.1490,348.9577,0,U,45746,999,33835,.34091438E-3,.29791E-3,0
STARLINK-1506,2020-038T,2026-07-21T13:25:33.366144,15.29411557,.00026813,53.0748,301.5128,336.3897,23.6978,0,U,45747,999,33715,.57617943E-3,.16336E-3,0
STARLINK-1464,2020-038X,2026-07-21T13:33:17.652960,15.56511549,.00014894,53.0440,280.8484,134.7809,225.3323,0,U,45751,999,33743,.68064598E-3,.48937E-3,0
STARLINK-1477,2020-038AA,2026-07-21T01:03:51.935040,15.21049081,.0000857,53.0490,323.6540,358.1717,1.9275,0,U,45754,999,33678,.7421642E-3,.16401E-3,0
STARLINK-1478,2020-038AB,2026-07-21T11:34:15.950784,15.75950341,.00043902,53.0432,260.4668,19.0634,341.0549,0,U,45755,999,33769,.47241782E-3,.74764E-3,0
STARLINK-1493,2020-038AF,2026-07-21T14:09:44.165664,15.69446024,.00021167,53.0441,271.3442,113.4935,246.6304,0,U,45759,999,33755,.47136715E-3,.56291E-3,0
STARLINK-1502,2020-038AL,2026-07-21T08:39:12.800448,15.68611716,.00036045,53.0423,276.6997,19.1962,340.9189,0,U,45764,999,33747,.44335362E-3,.51085E-3,0
STARLINK-1470,2020-038AU,2026-07-21T11:25:50.483136,15.38491459,.00015079,53.0390,268.0902,28.5834,331.5251,0,U,45772,999,33760,.67378277E-3,.25668E-3,0
STARLINK-1482,2020-038AV,2026-07-21T14:29:53.689632,15.41429147,.00014606,53.1553,283.6081,50.2828,309.8306,0,U,45773,999,33742,.77607379E-3,.3269E-3,0
